StoreName,StoreType,StoreOpeningDate,Address,City,State,ZipCode,Country,Region,Manager Name
The Luxe Loft,SMB,2007-12-06,2433 Bennett Flats Hamiltonland  TN 07474,Cummingsstad,North Dakota,30414,Paraguay,North,David
The Shimmer Corner,MBO,1987-03-15,5120 Gwendolyn Path Suite 543 West Andreamouth  DC 92812,Christianmouth,Arkansas,27973,Kazakhstan,South,Adam
The Happy Corner,MBO,1970-11-30,2382 Jennifer Points Suite 841 Thomashaven  MP 14837,West Heather,Delaware,41694,Saint Helena,West,Andrew
The Shimmer Creations,Outlet Stores,1997-04-19,1895 Pugh Dale Apt. 556 Thompsonbury  OR 34152,Rhondamouth,Tennessee,51643,Guinea-Bissau,North,Thomas
The Modern Enclave,SMB,2000-12-13,824 Ricky Lake Davidton  GU 20842,Sarahfort,Delaware,43459,Zambia,West,Julia
The Artisan Nook,Outlet Stores,1976-04-10,243 Wayne Vista Suite 839 Lyonschester  MO 14494,Sandersburgh,Arkansas,83511,American Samoa,North,Darrell
The Modern Creations,SMB,2001-07-03,3196 George Radial North Zacharyburgh  MO 62236,Cynthiatown,Vermont,25361,Cocos (Keeling) Islands,West,Jessica
The Radiant Creations,Outlet Stores,1989-05-09,123 Antonio Estates East Peterside  MH 89919,Rogersview,Iowa,67248,Martinique,West,Raymond
The Harmony Essentials,Exclusive,2003-06-28,75879 Cooke Freeway Suite 226 Brownberg  NH 34462,Johnsonborough,California,55986,Puerto Rico,West,Wendy
The Serene Shoppe,Exclusive,2014-07-15,04799 Giles Parkway Wuville  WY 77841,Port Tracyburgh,Idaho,59820,Solomon Islands,South,Jennifer
The Luxe Oasis,MBO,1998-12-07,399 Ethan Way Christopherhaven  SD 92408,Amberland,Nevada,67571,Cameroon,West,Christian
The Cozy Marvels,SMB,2011-02-19,722 Chavez Glens Booneside  CT 22832,Port Alexis,Ohio,22019,Afghanistan,West,Kathryn
The Trendy Avenue,SMB,2018-04-01,111 Ivan Fork East Edward  TN 09052,North Michaelville,Alabama,08198,Cook Islands,West,David
The Vintage Sanctuary,Exclusive,1970-11-15,97090 Wright Avenue Medinaside  SD 94179,East Christopher,Oklahoma,65930,Seychelles,South,Brandon
The Dapper Treasures,SMB,2010-07-15,17735 Hall Mews South Martinbury  WA 59617,South Beth,Louisiana,84350,Cameroon,East,Amanda
The Polished Marvels,MBO,2005-04-24,825 Short Manor Apt. 467 South Christianmouth  MA 19897,Anthonystad,Arkansas,66140,Lesotho,East,Stephanie
The Cozy Quest,SMB,2000-05-18,23426 Vicki Branch Suite 730 Christianbury  VA 63825,Rangelborough,Maine,72297,Senegal,East,Jacob
The Serene Avenue,SMB,1977-09-12,842 Harrison Summit Suite 432 West Lindamouth  NH 80080,Pamelaport,Minnesota,67101,Nauru,East,Tiffany
The Rustic Sanctuary,Outlet Stores,1989-06-19,3680 Charles Drive Suite 911 Lawrencemouth  GU 12714,Gilbertchester,Vermont,22247,Botswana,North,Jennifer
The Chic Haven,MBO,2022-08-02,64780 Tiffany Spurs Kathryntown  FM 74279,West Thomasstad,Oklahoma,72121,Hungary,South,Brandon
The Luxe Boutique,MBO,2005-05-15,6645 Jensen Alley Mullinsmouth  TN 43701,Kaylabury,Delaware,93246,Egypt,South,Victor
The Luxe Shoppe,Exclusive,2001-03-12,6484 Brenda Prairie East Jason  DC 97621,South Allisonshire,New Hampshire,17678,Gibraltar,North,Angela
The Eclectic Emporium,Exclusive,2019-01-15,401 Buchanan Ports Julialand  VT 78228,Lake Lori,New Hampshire,67279,Lithuania,West,Lucas
The Harmony Treasures,Exclusive,2013-12-17,807 Webster Corner North Pamela  GU 20282,East Jenniferfurt,Georgia,88974,Uruguay,East,Sheena
The Unique Vault,Exclusive,1975-09-16,00983 Reynolds Isle Suite 086 Deckerfurt  AL 04179,New Pamelaland,Utah,07475,Albania,South,Ann
The Whimsy Essentials,SMB,2016-12-15,9894 Pittman Port Apt. 392 Hudsonview  PW 39511,South Matthew,New York,49022,Yemen,East,Eric
The Dapper Boutique,MBO,2021-08-19,004 Hunt Track Suite 546 Colleenfurt  MA 16057,Riveraside,South Dakota,46835,Guernsey,East,Reginald
The Elegant Avenue,Exclusive,1996-05-06,9615 Toni Extensions West Wanda  NM 17944,South Jason,Missouri,49029,El Salvador,West,Catherine
The Blissful Oasis,SMB,2025-03-11,17316 Gonzalez Union Apt. 943 New Deborahbury  WY 78931,South Tiffany,Delaware,64458,Saint Helena,East,Billy
The Modern Oasis,SMB,1989-06-30,382 Roberta Meadow New Jamesport  UT 27564,Joneschester,Wyoming,91302,Tokelau,North,Christy
The Classy Enclave,Exclusive,2002-07-07,78906 Hughes Square Suite 460 Oliverhaven  MD 41796,Cabreramouth,Maine,16861,Kenya,East,Suzanne
The Cozy Reflections,MBO,2018-06-02,9360 Stacey Rapid North Kevin  CT 10702,South Jamesmouth,Pennsylvania,80545,Indonesia,South,Christopher
The Cozy Essentials,Exclusive,2019-02-24,4471 Alan Island Suite 524 Edwardfort  ID 16370,West Laura,Arizona,51610,Bosnia and Herzegovina,South,Stephanie
The Urban Enclave,Outlet Stores,2001-10-05,693 Ralph Fort Ryanberg  ME 03440,Port Philip,Oklahoma,21059,Czech Republic,South,Paul
The Classy Nook,SMB,2003-07-13,87095 Martin Wall Kelleybury  AZ 84931,Jenniferberg,South Carolina,38142,Isle of Man,West,Curtis
The Elegant Boutique,MBO,2014-06-14,72692 Tate Mount Suite 821 Wardville  SC 21027,Lake Jillshire,Nebraska,01637,Cote d'Ivoire,North,Angela
The Artisan Merchant,SMB,2024-10-24,0001 Jessica Bridge New Deborahburgh  GA 71987,Johnburgh,Pennsylvania,20083,Martinique,East,Hailey
The Artisan Marvels,Outlet Stores,1975-06-11,127 Rhodes Key Apt. 979 New Matthew  FL 35292,Garyview,Maryland,42651,Suriname,South,Emma
The Happy Sanctuary,SMB,1975-03-07,866 Robin Gardens Swansonport  IN 88179,South Barryfort,Idaho,88162,France,West,Kimberly
The Luxe Quest,SMB,1981-09-20,615 Anderson View Port Jeffreyview  FM 28919,Kellytown,Nebraska,50838,Pitcairn Islands,South,Gabriel
The Enchanted Cabinet,MBO,1984-05-27,Unit 8654 Box 3315 DPO AE 18323,New Robinbury,California,27427,Argentina,East,Austin
The Radiant Reflections,Exclusive,1992-01-28,9935 Shawn Lake South Cindyburgh  DC 85383,Elizabethport,Arizona,80025,Nauru,South,Brenda
The Shimmer Reflections,SMB,1990-09-20,09700 Jackson Fields Apt. 770 Vasquezhaven  HI 93889,East Jack,Alaska,41505,Gabon,North,Michael
The Unique Finds,Exclusive,2020-02-26,57177 Spencer Flats New Pamela  SD 25470,East Kimberlystad,North Dakota,81168,Korea,West,Matthew
The Unique Finds,Outlet Stores,1999-06-21,914 Ramos Divide Apt. 112 Javierburgh  NE 66652,Reynoldstown,Arizona,45681,Cambodia,North,Michael
The Stylish Reflections,MBO,1995-06-14,245 Terri Neck Timothyshire  PW 76928,North Troyfort,Minnesota,81681,Sierra Leone,West,Michael
The Golden Hub,Exclusive,2025-01-01,46729 Flynn Wells Suite 857 East Christy  GA 26348,Jonathanstad,Texas,05253,Lao People's Democratic Republic,North,Rachel
The Chic Nook,MBO,1985-07-24,327 Nelson Ports Port Terrifort  DC 01740,Patelfurt,Louisiana,39307,Honduras,East,Matthew
The Rustic Cabinet,MBO,1979-02-04,236 Gill Knoll East Jeffreytown  KS 02374,Joshuashire,California,76335,France,South,Cynthia
The Golden Essentials,Exclusive,1984-07-13,77597 Dunn Shore Suite 557 Jenniferborough  PR 66738,East Melissa,California,48790,Saint Barthelemy,West,Tammy
The Blissful Enclave,Outlet Stores,2011-11-19,1488 Carter Plains North Kathryn  CA 29065,West Jasonstad,Michigan,00583,Isle of Man,North,Joel
The Modern Essentials,Exclusive,2020-01-19,91677 Smith Burgs Apt. 530 Morenoside  VI 54575,Danielstad,Arizona,66436,Hungary,South,Walter
The Dapper Shoppe,SMB,2005-09-23,242 Nichole Mission Apt. 179 Lake Rebeccashire  ND 69505,Joshuaville,New Mexico,91181,Saint Helena,South,Jason
The Whimsy Quest,Exclusive,1973-05-25,005 Stacey Union Apt. 960 Lake Brianview  CT 14052,Susantown,Iowa,98406,Ethiopia,East,Albert
The Elegant Oasis,MBO,1972-12-28,6692 Elizabeth Lodge Suite 182 Port Julieside  MT 86070,Lake Joshuachester,Georgia,47472,Portugal,North,Jose
The Elegant Sanctuary,Exclusive,2019-07-14,7699 Buckley Wall Apt. 990 South Joe  ND 80977,Smithchester,New Hampshire,33217,Jersey,North,Charles
The Chic Enclave,SMB,1980-08-27,39549 Brian Run Wardborough  NV 42356,East Matthewberg,New Mexico,88063,Vanuatu,East,Wendy
The Elegant Treasures,MBO,1997-09-04,608 Graham Road Apt. 847 New Tracyberg  OH 31154,Quinnton,Arkansas,85622,Romania,East,Jeremy
The Whimsy Shoppe,Outlet Stores,1995-06-23,04742 Roth Road Suite 399 Theodoreport  CO 74090,Josephhaven,Minnesota,53325,Gabon,North,Leah
The Enchanted Avenue,SMB,1988-04-15,4632 Brandon Ports Paulberg  AK 55240,South Joseph,Wyoming,18522,Finland,West,Zachary
The Rustic Treasures,MBO,2016-02-19,6959 David Alley Port Madison  PR 05347,North Eugeneburgh,Massachusetts,53579,United States Virgin Islands,South,Raymond
The Serene Corner,Outlet Stores,1975-07-28,2003 Alyssa Wall Alanland  NC 76375,Hicksville,Montana,12028,Cuba,North,Maria
The Serene Boutique,SMB,1995-06-12,63851 Cory Station West Todd  NY 91601,Lake Brianshire,Pennsylvania,45562,Greece,West,Charles
The Timeless Elegance,MBO,2024-04-07,80670 Patrick Stream Apt. 044 East Christine  IL 44449,North Kathryn,New Hampshire,86804,France,South,Gary
The Cozy Hub,Exclusive,1978-03-22,64328 Shelton Crescent Lake Robert  NM 67601,Hicksside,Ohio,94312,Kazakhstan,North,Jennifer
The Timeless Emporium,Outlet Stores,2019-08-17,92670 Glenn Radial Davidshire  DE 93762,Lake Williamville,Wyoming,19911,Sierra Leone,South,Emily
The Radiant Perfection,SMB,2021-10-03,265 Colin Lodge Harveyfurt  DE 45021,North Williamtown,Florida,83188,Uruguay,West,Connie
The Trendy Essentials,MBO,2024-04-09,1505 Susan Motorway Matthewshire  TN 63066,Lynnstad,Georgia,91434,Mayotte,East,Margaret
The Trendy Marvels,Outlet Stores,1993-12-23,852 Miller Ways West John  WV 14847,North Christopher,Indiana,85876,Burundi,North,Charles
The Radiant Merchant,MBO,2008-10-23,93045 Chaney Trace Garciastad  KY 85517,New Davidhaven,Michigan,06407,Martinique,South,James
The Dapper Enclave,MBO,1989-11-12,146 Walker Springs Apt. 537 Garzamouth  CT 86088,South Jeffrey,Nebraska,59606,Somalia,South,Gloria
The Enchanted Avenue,Outlet Stores,2017-06-20,318 Amy Brook Apt. 641 Paulton  DC 13105,Maxwelltown,Texas,01739,North Macedonia,East,Alyssa
The Happy Cabinet,MBO,1981-01-10,9439 Combs Park Ricemouth  CA 44850,West Cathy,Colorado,65695,French Guiana,South,Candice
The Radiant Emporium,Outlet Stores,2004-05-25,532 Martinez Summit Suite 573 West Stephen  MO 17042,Wisechester,Maine,55614,Bahrain,West,Robert
The Polished Merchant,SMB,2013-12-22,469 Charles Shore Lake Brian  GA 61107,Sullivantown,Tennessee,79789,British Virgin Islands,North,Sherry
The Polished Corner,MBO,1989-04-12,4519 Rivera Drives Apt. 584 Billyport  MT 48199,Jameschester,Florida,64074,Guatemala,East,Kristi
The Majestic Marketplace,MBO,1988-03-13,17039 Gordon Fork Brownshire  PW 01495,East Tammy,Nebraska,85284,Indonesia,East,Robin
The Vintage Creations,MBO,1995-01-22,863 Elizabeth Passage West Carolborough  GU 65913,Raymondburgh,Delaware,40371,Cuba,West,Erin
The Classy Vault,SMB,1973-03-03,87882 Watkins Grove Suite 816 Gordonmouth  AS 78028,West Kathleen,Vermont,23454,Jersey,East,Michelle
The Urban Essentials,MBO,2016-08-21,50069 White Expressway Jasonbury  MP 85928,Stevensonfurt,Alaska,32980,Myanmar,East,Diana
The Purely Elegance,MBO,2023-09-26,147 Brenda Passage Suite 537 Port Robert  PR 36917,Davisfurt,Georgia,77406,Zambia,North,Jody
The Eclectic Emporium,Exclusive,2013-09-02,39541 Nash Centers North Jeffrey  IA 70994,Lauraberg,Arkansas,04226,Seychelles,East,Curtis
The Classy Loft,Outlet Stores,1992-05-23,9041 Jonathan Ramp West Carlos  TX 12175,Lake Kristina,Florida,52872,France,South,Christopher
The Shimmer Sanctuary,Outlet Stores,2008-05-16,4240 Brian Loaf Suite 791 Barnettville  MH 18091,West Kimberlyview,Louisiana,76985,Aruba,East,Sharon
The Luxe Elegance,SMB,1987-02-21,07444 Tara Mill Suite 088 Horneville  AS 95651,South Candace,Missouri,70477,Singapore,South,Gary
The Classy Essentials,MBO,1988-02-01,729 Moore Ville Suite 367 New Stephentown  IN 84848,Williamsbury,Connecticut,40042,Ireland,East,Christopher
The Vintage Quest,MBO,1999-08-21,7883 Stanley Courts Suite 877 Vasquezport  IL 29451,Trujillohaven,Colorado,85550,Tanzania,South,Brett
The Chic Nook,SMB,1984-08-21,79082 Thomas Mall Austinstad  VI 53184,Rhondaview,South Carolina,35656,Sri Lanka,East,Justin
The Polished Shop,MBO,1990-05-05,33522 Gray Bridge Apt. 349 North Karenport  UT 65322,North Alyssaport,Minnesota,97583,Panama,South,Samantha
The Luxe Boutique,MBO,1995-09-09,Unit 0177 Box 3022 DPO AP 68178,West Stephanieside,Tennessee,57762,Gambia,West,Robert
The Purely Corner,Outlet Stores,2023-05-23,0531 Ryan Radial Apt. 961 Lake Nancy  FM 03971,North Seth,Nebraska,47521,Guadeloupe,West,Joanne
The Blissful Corner,SMB,2018-08-06,8468 Tracy Summit Suite 873 Atkinsshire  HI 58165,Lake Frederick,Kentucky,84714,Madagascar,North,Jeremy
The Serene Quest,MBO,1997-10-27,28480 Carl Greens East Rachelhaven  NJ 66687,Williamsbury,California,11591,Mauritania,South,Drew
The Timeless Hub,MBO,1971-12-15,PSC 0476  Box 6977 APO AA 48278,Tracytown,Georgia,66422,Italy,North,Wanda
The Rustic Loft,SMB,2020-02-13,84849 Simon Land Suite 529 Gilbertberg  CT 69301,Mendezview,Connecticut,11968,Cyprus,North,Jeffrey
The Whimsy Oasis,MBO,1973-05-14,3131 Anna Shoal Floresfurt  FM 43443,Hansenstad,West Virginia,91069,Holy See (Vatican City State),West,Amy
The Chic Sanctuary,Exclusive,1974-07-19,0986 Eric Street Apt. 731 Lake David  HI 77775,Finleyberg,Massachusetts,59176,Dominica,North,Maureen
The Dapper Shop,Exclusive,2023-05-10,903 Samantha Stream East Markside  TX 69307,Gutierrezberg,Iowa,02465,Solomon Islands,South,Cindy
The Artisan Boutique,Outlet Stores,2013-09-27,PSC 8106  Box 7156 APO AA 81334,East Jeffrey,New Jersey,68615,Belize,East,Natalie
The Golden Shop,MBO,1982-04-17,975 Douglas Square South Sarahport  MI 34017,New Austin,California,59880,Thailand,South,Jose
